[{"OBJECT_NAME":"BANE","OBJECT_ID":"2023-185D","EPOCH":"2026-03-09T22:38:54.916224","MEAN_MOTION":15.6846319,"ECCENTRICITY":0.00050193,"INCLINATION":97.3445,"RA_OF_ASC_NODE":151.472,"ARG_OF_PERICENTER":176.385,"MEAN_ANOMALY":183.7448,"EPHEMERIS_TYPE":0,"CLASSIFICATION_TYPE":"U","NORAD_CAT_ID":58465,"ELEMENT_SET_NO":999,"REV_AT_EPOCH":12713,"BSTAR":0.00097597303,"MEAN_MOTION_DOT":0.00111172,"MEAN_MOTION_DDOT":0},{"OBJECT_NAME":"STARLINK-11203 [DTC]","OBJECT_ID":"2024-118E","EPOCH":"2026-03-09T16:47:11.995296","MEAN_MOTION":15.69719851,"ECCENTRICITY":0.00014241,"INCLINATION":53.1585,"RA_OF_ASC_NODE":221.3023,"ARG_OF_PERICENTER":81.1075,"MEAN_ANOMALY":279.0104,"EPHEMERIS_TYPE":0,"CLASSIFICATION_TYPE":"U","NORAD_CAT_ID":60117,"ELEMENT_SET_NO":999,"REV_AT_EPOCH":9799,"BSTAR":0.00015259239,"MEAN_MOTION_DOT":0.00017945,"MEAN_MOTION_DDOT":0}]
